Bin,House Number,Street Name,Zip,Community Board,Borough Name,Block,Lot,LONGITUDE_POINT_X,LATITUDE_POINT_Y
1001461,20,WARREN STREET,10007,101,Manhattan,135,9,-74.00768280029297,40.714290618896484
1001490,160,CHAMBERS STREET,10007,101,Manhattan,137,25,-74.01036834716797,40.7158088684082
1001511,13,HUDSON STREET,10013,101,Manhattan,141,1,-74.00939178466797,40.716461181640625
1001586,111,READE STREET,10013,101,Manhattan,145,16,-74.00869750976562,40.71575164794922
1003097,189,HESTER STREET,10013,102,Manhattan,237,35,-73.99764251708984,40.718231201171875
1003500,54,EAST BROADWAY,10002,103,Manhattan,281,25,-73.9955062866211,40.713809967041016
1003535,105,EAST BROADWAY,10002,103,Manhattan,282,25,-73.99308776855469,40.713600158691406
1003708,217,HENRY STREET,10002,103,Manhattan,286,5,-73.98664855957031,40.713871002197266
1004117,175,STANTON STREET,10002,103,Manhattan,344,150,-73.98428344726562,40.7199592590332
1004360,298,EAST 3 STREET,10009,103,Manhattan,372,22,-73.97960662841797,40.72100067138672
1004440,738,EAST 6 STREET,10009,103,Manhattan,375,28,-73.97794342041016,40.72272872924805
1004567,9,AVENUE B,10009,103,Manhattan,384,6,-73.98339080810547,40.7216796875
1004610,37,AVENUE B,10009,103,Manhattan,386,1,-73.98262786865234,40.72269058227539
1005467,286,BROOME STREET,10002,103,Manhattan,414,30,-73.99137878417969,40.71868896484375
1005581,276,GRAND STREET,10002,103,Manhattan,418,56,-73.99266815185547,40.7180290222168
1005585,120,FORSYTH STREET,10002,103,Manhattan,419,46,-73.99212646484375,40.719181060791016
1005814,91,EAST    7 STREET,10009,103,Manhattan,435,1,-73.98544311523438,40.72697067260742
1005896,158,1 AVENUE,10009,103,Manhattan,437,6,-73.98430633544922,40.72843933105469
1005898,162,1 AVENUE,10009,103,Manhattan,437,8,-73.98428344726562,40.728580474853516
1005931,170,1 AVENUE,10009,103,Manhattan,438,4,-73.98394775390625,40.728919982910156
1005994,444,EAST 13 STREET,10009,103,Manhattan,440,30,-73.98148345947266,40.729740142822266
1006021,219,AVENUE A,10009,103,Manhattan,441,32,-73.9808578491211,40.73019027709961
1006074,43,EAST 1 STREET,10003,103,Manhattan,442,17,-73.99004364013672,40.72372817993164
1006383,79,ST MARKS PLACE,10003,103,Manhattan,450,35,-73.98555755615234,40.72789001464844
1006455,163,1 AVENUE,10003,103,Manhattan,452,37,-73.98468780517578,40.72901153564453
1006498,351,EAST   12 STREET,10003,103,Manhattan,454,45,-73.98372650146484,40.730220794677734
1006515,324,EAST   14 STREET,10003,103,Manhattan,455,19,-73.98409271240234,40.73167037963867
1006573,84,EAST    4 STREET,10003,103,Manhattan,459,28,-73.98975372314453,40.726200103759766
1006581,216,EAST 5 STREET,10003,103,Manhattan,460,19,-73.9905014038086,40.72719955444336
1006594,75,2 AVENUE,10003,103,Manhattan,460,39,-73.98954010009766,40.72658920288086
1006677,131,   2 AVENUE,10003,103,Manhattan,463,28,-73.98806762695312,40.72861099243164
1006746,141,2 AVENUE,10003,103,Manhattan,464,34,-73.98760223388672,40.72917938232422
1006984,375,BROOME STREET,10013,102,Manhattan,471,41,-73.99640655517578,40.72005081176758
1007074,62,GRAND STREET,10013,102,Manhattan,475,32,-74.00325775146484,40.72237014770508
1007254,442,BROOME STREET,10013,102,Manhattan,484,28,-74.00005340576172,40.72203063964844
1007496,231,MOTT STREET,10012,102,Manhattan,494,24,-73.9953384399414,40.72264099121094
1008183,296,MOTT STREET,10012,102,Manhattan,521,26,-73.99385070800781,40.72488021850586
1008199,4,BLEECKER STREET,10012,102,Manhattan,521,73,-73.99270629882812,40.7252311706543
1009446,43,WEST 8 STREET,10011,102,Manhattan,572,65,-73.99830627441406,40.73331069946289
1009447,49,W 8TH ST,10011,102,Manhattan,572,68,-73.99852752685547,40.7334098815918
1010282,14,GAY STREET,10014,102,Manhattan,593,48,-74.00055694580078,40.73365020751953
1011161,200,WEST 10 STREET,10014,102,Manhattan,619,62,-74.0038070678711,40.73392105102539
1011318,63,PERRY STREET,10014,102,Manhattan,622,59,-74.00392150878906,40.73564910888672
1012162,69,HORATIO STREET,10014,102,Manhattan,643,64,-74.00701904296875,40.73894119262695
1012805,406,WEST 25 STREET,10001,104,Manhattan,722,45,-74.00105285644531,40.74781036376953
1012878,452,WEST 36 STREET,10018,104,Manhattan,733,65,-73.99775695800781,40.75543975830078
1013271,312,WEST 21 STREET,10011,104,Manhattan,744,48,-74.0003890991211,40.744178771972656
1013653,352,WEST 39 STREET,10018,104,Manhattan,762,68,-73.99369812011719,40.75617980957031
1013980,152,7 AVENUE,10011,104,Manhattan,769,34,-73.99765014648438,40.741859436035156
1014113,229,WEST 22 STREET,10011,104,Manhattan,772,30,-73.99690246582031,40.74399948120117
1014295,208,WEST 30 STREET,10001,105,Manhattan,779,49,-73.99324798583984,40.74856948852539
1014333,404,8 AVENUE,10001,105,Manhattan,780,2,-73.99488067626953,40.749698638916016
1015015,763,6 AVENUE,10010,104,Manhattan,801,40,-73.99191284179688,40.74457931518555
1015064,145,WEST 27 STREET,10001,105,Manhattan,803,7503,-73.99270629882812,40.74641036987305
1015092,136,WEST 28 STREET,10001,105,Manhattan,803,60,-73.99223327636719,40.74652099609375
1015810,23,WEST 31 STREET,10001,105,Manhattan,833,27,-73.98710632324219,40.74726867675781
1016986,15,EAST 31 STREET,10016,105,Manhattan,861,7501,-73.98480224609375,40.74628829956055
1017102,51,EAST 34 STREET,10016,106,Manhattan,864,30,-73.98200225830078,40.7476692199707
1018333,174,LEXINGTON AVENUE,10016,105,Manhattan,886,69,-73.9814682006836,40.74440002441406
1025018,334,WEST 46 STREET,10036,104,Manhattan,1036,47,-73.9893798828125,40.76015090942383
1025065,330,WEST   47 STREET,10036,104,Manhattan,1037,50,-73.98916625976562,40.76087951660156
1025089,343,WEST 47 STREET,10036,104,Manhattan,1038,11,-73.98919677734375,40.76137924194336
1026424,438,WEST 45 STREET,10036,104,Manhattan,1054,53,-73.99314880371094,40.76091003417969
1026425,440,WEST 45 STREET,10036,104,Manhattan,1054,54,-73.99323272705078,40.760948181152344
1026602,703,9 AVENUE,10019,104,Manhattan,1058,30,-73.99005126953125,40.76253128051758
1026618,432,WEST   49 STREET,10019,104,Manhattan,1058,49,-73.99099731445312,40.76329040527344
1030532,268,WEST 73 STREET,10023,107,Manhattan,1164,59,-73.98351287841797,40.7800407409668
1031538,24,WEST 89 STREET,10024,107,Manhattan,1202,141,-73.96894073486328,40.787410736083984
1031551,53,WEST 89 STREET,10024,107,Manhattan,1203,12,-73.96958923339844,40.788169860839844
1032069,460,COLUMBUS AVENUE,10024,107,Manhattan,1213,29,-73.9742202758789,40.78409957885742
1032121,158,WEST   84 STREET,10024,107,Manhattan,1214,59,-73.97554016113281,40.78593063354492
1033649,698,AMSTERDAM AVENUE,10025,107,Manhattan,1241,35,-73.97176361083984,40.79270935058594
1033650,200,WEST 94 STREET,10025,107,Manhattan,1241,36,-73.9717025756836,40.792781829833984
1036167,696,3 AVENUE,10017,106,Manhattan,1298,38,-73.97393035888672,40.75197982788086
1038231,245,EAST 49 STREET,10017,106,Manhattan,1323,20,-73.96945190429688,40.75468826293945
1038476,981,2 AVENUE,10022,106,Manhattan,1325,31,-73.96794128417969,40.75614929199219
1039805,340,EAST 53 STREET,10022,106,Manhattan,1345,34,-73.96568298339844,40.75587844848633
1044110,1481,2 AVENUE,10075,108,Manhattan,1432,21,-73.95613861083984,40.772369384765625
1045161,1460,2 AVENUE,10075,108,Manhattan,1451,3,-73.95601654052734,40.771488189697266
1045225,1496,2 AVENUE,10075,108,Manhattan,1452,49,-73.95535278320312,40.77244186401367
1046666,23,EAST 81 STREET,10028,108,Manhattan,1493,7506,-73.96148681640625,40.778018951416016
1048057,1566,   3 AVENUE,10128,108,Manhattan,1516,40,-73.95337677001953,40.7801513671875
1048093,168,EAST   89 STREET,10128,108,Manhattan,1517,42,-73.95330047607422,40.780818939208984
1048391,179,EAST   93 STREET,10128,108,Manhattan,1522,29,-73.95140838623047,40.783790588378906
1048684,203,EAST 82 STREET,10028,108,Manhattan,1528,104,-73.95529174804688,40.77621078491211
1048874,201,EAST 89 STREET,10128,108,Manhattan,1535,1,-73.95217895507812,40.78070831298828
1049236,210,EAST 95 STREET,10128,108,Manhattan,1540,42,-73.94920349121094,40.784000396728516
1049865,300,EAST 82 STREET,10028,108,Manhattan,1544,49,-73.95345306396484,40.77510070800781
1049952,1626,2 AVENUE,10028,108,Manhattan,1547,2,-73.95230865478516,40.776611328125
1051642,69,EAST 115 STREET,10029,111,Manhattan,1621,29,-73.94436645507812,40.79914855957031
1051659,10,EAST 116 STREET,10029,111,Manhattan,1621,66,-73.94593048095703,40.80012893676758
1051803,197,EAST 100 STREET,10029,111,Manhattan,1628,33,-73.94770050048828,40.78797912597656
1051972,168,EAST 105 STREET,10029,111,Manhattan,1632,44,-73.94605255126953,40.791019439697266
1052115,1970,3 AVENUE,10029,111,Manhattan,1636,35,-73.9438705444336,40.79322814941406
1052200,160,EAST 111 STREET,10029,111,Manhattan,1638,148,-73.94365692138672,40.79507064819336
1052247,171,EAST 115 STREET,10029,111,Manhattan,1643,29,-73.94120025634766,40.79777908325195
1052262,1863,LEXINGTON AVENUE,10029,111,Manhattan,1643,52,-73.94164276123047,40.79832077026367
1052270,112,EAST  116 STREET,10029,111,Manhattan,1643,65,-73.94268035888672,40.79875946044922
1052271,110,EAST  116 STREET,10029,111,Manhattan,1643,7502,-73.94275665283203,40.79880142211914
1052463,245,EAST 110 STREET,10029,111,Manhattan,1660,19,-73.9410171508789,40.79362106323242
1052467,2145,   2 AVENUE,10029,111,Manhattan,1660,23,-73.94066619873047,40.793521881103516
1052837,2121,1 AVENUE,10029,111,Manhattan,1681,23,-73.93885803222656,40.791770935058594
1052924,322,EAST 116 STREET,10029,111,Manhattan,1687,41,-73.9368896484375,40.796321868896484
1052934,305,EAST 115 STREET,10029,111,Manhattan,1687,104,-73.93769073486328,40.796329498291016
1053009,417,EAST 114 STREET,10029,111,Manhattan,1708,10,-73.93533325195312,40.79452133178711
1053056,432,EAST 116 STREET,10029,111,Manhattan,1709,35,-73.93437957763672,40.79526138305664
1053109,413,EAST 117 STREET,10035,111,Manhattan,1711,7,-73.93412017822266,40.796600341796875
1053183,69,WEST  118 STREET,10026,110,Manhattan,1717,11,-73.94757843017578,40.8030891418457
1053292,81,WEST 119 STREET,10026,110,Manhattan,1718,108,-73.94731140136719,40.803810119628906
1053388,242,LENOX AVENUE,10027,110,Manhattan,1721,2,-73.94640350341797,40.80582809448242
1053639,2074,5 AVENUE,10035,110,Manhattan,1725,39,-73.94125366210938,40.80830001831055
1053715,33,WEST 128 STREET,10027,110,Manhattan,1726,122,-73.9420394897461,40.809078216552734
1053769,73,WEST 130 STREET,10037,110,Manhattan,1728,1,-73.94271850585938,40.81087112426758
1054016,14,EAST 125 STREET,10035,111,Manhattan,1749,64,-73.94164276123047,40.80583953857422
1054095,51,EAST 126 STREET,10035,111,Manhattan,1751,29,-73.939208984375,40.80625915527344
1054178,2024,MADISON AVENUE,10035,111,Manhattan,1753,16,-73.93934631347656,40.80794143676758
1054207,2081,5 AVENUE,10035,111,Manhattan,1753,102,-73.9404296875,40.80841827392578
1054246,2056,MADISON AVENUE,10035,111,Manhattan,1754,58,-73.93863677978516,40.80891036987305
1054296,64,EAST 131 STREET,10037,111,Manhattan,1755,143,-73.9371566772461,40.80897903442383
1054342,2153,5 AVENUE,10037,111,Manhattan,1756,72,-73.93894958496094,40.810420989990234
1054348,1901,LEXINGTON AVENUE,10035,111,Manhattan,1767,21,-73.94035339355469,40.800048828125
1054366,121,EAST 119 STREET,10035,111,Manhattan,1768,9,-73.94080352783203,40.80105972290039
1054531,2311,   2 AVENUE,10035,111,Manhattan,1783,25,-73.93683624267578,40.79877853393555
1054533,2315,2 AVENUE,10035,111,Manhattan,1783,27,-73.93675231933594,40.79890060424805
1054710,329,EAST 118 STREET,10035,111,Manhattan,1795,16,-73.93538665771484,40.797950744628906
1054738,311,EAST  119 STREET,10035,111,Manhattan,1796,7,-73.93562316894531,40.79887008666992
1054758,348,EAST 120 STREET,10035,111,Manhattan,1796,33,-73.93419647216797,40.79859161376953
1054846,2310,   1 AVENUE,10035,111,Manhattan,1806,49,-73.93389892578125,40.79753112792969
1054858,406,EAST  119 STREET,10035,111,Manhattan,1806,145,-73.93367767333984,40.797630310058594
1055020,102,WEST 114 STREET,10026,110,Manhattan,1823,37,-73.95127868652344,40.80073928833008
1055052,120,WEST 116 STREET,10026,110,Manhattan,1825,45,-73.95111846923828,40.802310943603516
1055057,1917,7 AVENUE,10026,110,Manhattan,1825,63,-73.95227813720703,40.802860260009766
1055291,8,MANHATTAN AVENUE,10025,107,Manhattan,1836,19,-73.96379852294922,40.79499053955078
1055820,312,WEST  114 STREET,10026,110,Manhattan,1847,66,-73.95741271972656,40.80332946777344
1055821,320,MANHATTAN AVENUE,10026,110,Manhattan,1847,68,-73.9576416015625,40.80342102050781
1055825,344,MANHATTAN AVENUE,10026,110,Manhattan,1848,4,-73.9572982788086,40.803890228271484
1055934,105,WEST 105 STREET,10025,107,Manhattan,1860,28,-73.96373748779297,40.79896926879883
1056065,256,WEST 97 STREET,10025,107,Manhattan,1868,59,-73.9723129272461,40.795509338378906
1057492,101,WEST 118 STREET,10026,110,Manhattan,1903,29,-73.94904327392578,40.8036003112793
1057558,191,LENOX AVENUE,10026,110,Manhattan,1904,33,-73.9483871459961,40.80445098876953
1057560,197,LENOX AVENUE,10026,110,Manhattan,1904,35,-73.94828796386719,40.804588317871094
1057675,2021,7 AVENUE,10027,110,Manhattan,1906,1,-73.94975280761719,40.80635070800781
1057803,144,WEST  124 STREET,10027,110,Manhattan,1908,52,-73.94780731201172,40.807621002197266
1057959,136,WEST 129 STREET,10027,110,Manhattan,1913,49,-73.94522094726562,40.81074142456055
1058118,162,WEST 132 STREET,10027,110,Manhattan,1916,56,-73.9444580078125,40.81285858154297
1058137,160,WEST 132 STREET,10027,110,Manhattan,1916,155,-73.94439697265625,40.81283950805664
1058263,185,WEST 135 STREET,10030,110,Manhattan,1920,6,-73.94293975830078,40.81528854370117
1058291,158,WEST 136 STREET,10030,110,Manhattan,1920,55,-73.94245147705078,40.81541061401367
1058338,102,WEST  137 STREET,10030,110,Manhattan,1921,37,-73.94055938720703,40.8154296875
1058370,243,WEST 116 STREET,10026,110,Manhattan,1922,9,-73.95435333251953,40.804298400878906
1058408,2190,8 AVENUE,10026,110,Manhattan,1924,1,-73.95407104492188,40.80570983886719
1058415,273,WEST 118 STREET,10026,110,Manhattan,1924,8,-73.95352935791016,40.805599212646484
1058427,200,WEST 119 STREET,10026,110,Manhattan,1924,36,-73.95157623291016,40.80522155761719
1058448,1976,7 AVENUE,10026,110,Manhattan,1925,29,-73.95137023925781,40.805511474609375
1058485,208,ST NICHOLAS AVENUE,10027,110,Manhattan,1926,61,-73.95263671875,40.80720138549805
1058515,2034,7 AVENUE,10027,110,Manhattan,1927,33,-73.95025634765625,40.807010650634766
1058527,234,WEST 122 STREET,10027,110,Manhattan,1927,51,-73.95149993896484,40.80752944946289
1058552,255,WEST 122 STREET,10027,110,Manhattan,1928,11,-73.95144653320312,40.80799865722656
1058759,268,WEST 132 STREET,10027,110,Manhattan,1937,157,-73.94738006591797,40.8140983581543
1058886,213,WEST  135 STREET,10030,110,Manhattan,1941,22,-73.94451904296875,40.81595993041992
1058888,209,WEST 135 STREET,10030,110,Manhattan,1941,24,-73.9443588256836,40.81589126586914
1059007,385,MANHATTAN AVENUE,10026,110,Manhattan,1943,13,-73.95691680908203,40.805259704589844
1059163,63,MORNINGSIDE AVENUE,10027,110,Manhattan,1947,64,-73.95577239990234,40.80839920043945
1059358,366,WEST 127 STREET,10027,109,Manhattan,1953,56,-73.9525375366211,40.812191009521484
1059363,376,WEST 127 STREET,10027,109,Manhattan,1953,61,-73.95294952392578,40.81248092651367
1059437,436,ST NICHOLAS AVENUE,10027,110,Manhattan,1958,52,-73.94867706298828,40.81480026245117
1059459,488,ST NICHOLAS AVENUE,10030,110,Manhattan,1959,58,-73.94786071777344,40.816650390625
1059634,1473,AMSTERDAM AVENUE,10027,109,Manhattan,1970,63,-73.95307922363281,40.81726837158203
1059703,504,WEST 126 STREET,10027,109,Manhattan,1982,31,-73.95613098144531,40.814208984375
1059792,509,WEST 135 STREET,10031,109,Manhattan,1988,98,-73.95285034179688,40.8194694519043
1059968,620,WEST 137 STREET,10031,109,Manhattan,2002,61,-73.9557113647461,40.82181930541992
1059970,590,RIVERSIDE DRIVE,10031,109,Manhattan,2002,69,-73.95625305175781,40.821720123291016
1060076,160,WEST 141 STREET,10030,110,Manhattan,2009,52,-73.93994903564453,40.81843185424805
1060085,137,WEST 141 STREET,10030,110,Manhattan,2010,6,-73.94004821777344,40.8189697265625
1060086,127,WEST 141 STREET,10030,110,Manhattan,2010,11,-73.93965148925781,40.818809509277344
1060186,133,WEST 145 STREET,10039,110,Manhattan,2014,20,-73.93724060058594,40.821170806884766
1060377,210,WEST 140 STREET,10030,110,Manhattan,2025,44,-73.942626953125,40.81874084472656
1060408,215,WEST  140 STREET,10030,110,Manhattan,2026,20,-73.9423828125,40.81914138793945
1060506,201,WEST  146 STREET,10039,110,Manhattan,2032,29,-73.93888854980469,40.82255935668945
1060510,2530,7 AVENUE,10039,110,Manhattan,2032,33,-73.938720703125,40.82279968261719
1060536,2546,   7 AVENUE,10039,110,Manhattan,2033,33,-73.93829345703125,40.82341003417969
1060574,220,WEST 149 STREET,10039,110,Manhattan,2034,47,-73.93865203857422,40.82453918457031
1060674,306,WEST 139 STREET,10030,110,Manhattan,2041,59,-73.94535827636719,40.8190803527832
1060752,300,WEST 142 STREET,10030,110,Manhattan,2043,18,-73.9437026977539,40.82094955444336
1060854,301,WEST 150 STREET,10039,110,Manhattan,2046,7,-73.9397964477539,40.82632827758789
1060864,2843,8 AVENUE,10039,110,Manhattan,2046,32,-73.93919372558594,40.827091217041016
1060875,2853,8 AVENUE,10039,110,Manhattan,2046,63,-73.9388427734375,40.827789306640625
1060895,301,WEST 154 STREET,10039,110,Manhattan,2047,29,-73.93801879882812,40.82872009277344
1060996,45,HAMILTON TERRACE,10031,109,Manhattan,2050,109,-73.9461898803711,40.82276153564453
1061169,375,EDGECOMBE AVENUE,10031,109,Manhattan,2054,20,-73.94097900390625,40.82807159423828
1061188,76,ST NICHOLAS PLACE,10032,109,Manhattan,2054,79,-73.94043731689453,40.82939147949219
1061189,66,ST NICHOLAS PLACE,10032,109,Manhattan,2054,82,-73.94064331054688,40.82912063598633
1061246,1661,AMSTERDAM AVENUE,10031,109,Manhattan,2058,29,-73.94867706298828,40.823421478271484
1061253,310,CONVENT AVENUE,10031,109,Manhattan,2058,47,-73.94761657714844,40.82329177856445
1061295,468,WEST 144 STREET,10031,109,Manhattan,2059,27,-73.94779205322266,40.824180603027344
1061298,474,WEST 144 STREET,10031,109,Manhattan,2059,30,-73.94795227050781,40.824249267578125
1061341,475,WEST 145 STREET,10031,109,Manhattan,2060,11,-73.94644165039062,40.825050354003906
1061352,717,ST NICHOLAS AVENUE,10031,109,Manhattan,2060,34,-73.94473266601562,40.82463836669922
1061492,453,WEST 148 STREET,10031,109,Manhattan,2063,11,-73.945068359375,40.82691955566406
1061584,400,WEST 151 STREET,10031,109,Manhattan,2065,42,-73.94286346435547,40.82804870605469
1061586,471,CONVENT AVENUE,10031,109,Manhattan,2065,44,-73.9432373046875,40.828060150146484
1061764,509,WEST 140 STREET,10031,109,Manhattan,2072,24,-73.95059967041016,40.822601318359375
1061775,572,WEST 141 STREET,10031,109,Manhattan,2072,59,-73.95191192626953,40.82347106933594
1061859,115,HAMILTON PLACE,10031,109,Manhattan,2074,30,-73.94918060302734,40.823631286621094
1061905,533,WEST 144 STREET,10031,109,Manhattan,2076,19,-73.94920349121094,40.82527160644531
1061930,533,WEST 145 STREET,10031,109,Manhattan,2077,10,-73.94927215576172,40.82624053955078
1061931,531,WEST 145 STREET,10031,109,Manhattan,2077,12,-73.94917297363281,40.82619857788086
1061969,555,WEST 147 STREET,10031,109,Manhattan,2079,1,-73.94892883300781,40.82773971557617
1061978,515,WEST 147 STREET,10031,109,Manhattan,2079,21,-73.94754791259766,40.8271484375
1062022,535,WEST 148 STREET,10031,109,Manhattan,2080,16,-73.9474868774414,40.82793045043945
1062119,556,WEST 150 STREET,10031,109,Manhattan,2081,53,-73.94721221923828,40.82896041870117
1062172,521,WEST 150 STREET,10031,109,Manhattan,2082,120,-73.9461898803711,40.82902145385742
1062173,515,WEST 150 STREET,10031,109,Manhattan,2082,122,-73.94602966308594,40.82896041870117
1062318,613,WEST 140 STREET,10031,109,Manhattan,2088,19,-73.95374298095703,40.823909759521484
1062353,627,WEST 142 STREET,10031,109,Manhattan,2089,118,-73.95298767089844,40.82522964477539
1062535,471,WEST 159 STREET,10032,112,Manhattan,2109,17,-73.93997955322266,40.83378982543945
1062599,425,WEST 162 STREET,10032,112,Manhattan,2110,41,-73.93817138671875,40.83536911010742
1062647,470,WEST 166 STREET,10032,112,Manhattan,2111,50,-73.93771362304688,40.83823013305664
1062752,538,WEST 159 STREET,10032,112,Manhattan,2117,17,-73.94296264648438,40.83464050292969
1062754,534,WEST 159 STREET,10032,112,Manhattan,2117,19,-73.94280242919922,40.834571838378906
1062756,530,WEST 159 STREET,10032,112,Manhattan,2117,21,-73.94264221191406,40.83449935913086
1062932,546,WEST 165 STREET,10032,112,Manhattan,2122,82,-73.94051361083984,40.838531494140625
1063043,551,WEST 170 STREET,10032,112,Manhattan,2127,22,-73.93760681152344,40.842010498046875
1063147,527,WEST  173 STREET,10032,112,Manhattan,2130,59,-73.93551635742188,40.84355926513672
1063171,2304,AMSTERDAM AVENUE,10033,112,Manhattan,2131,48,-73.93434143066406,40.84394836425781
1063235,1356,ST NICHOLAS AVENUE,10033,112,Manhattan,2133,66,-73.9349594116211,40.84708023071289
1063319,638,WEST 160 STREET,10032,112,Manhattan,2136,60,-73.94554901123047,40.83654022216797
1063386,238,FT WASHINGTON AVENUE,10032,112,Manhattan,2138,134,-73.9415512084961,40.84307098388672
1063416,705,WEST 170 STREET,10032,112,Manhattan,2139,183,-73.9419937133789,40.843849182128906
1063417,709,WEST  170 STREET,10032,112,Manhattan,2139,185,-73.94214630126953,40.843910217285156
1063599,508,WEST 180 STREET,10033,112,Manhattan,2152,41,-73.93232727050781,40.84756851196289
1063692,564,WEST 183 STREET,10033,112,Manhattan,2154,147,-73.9322280883789,40.84994888305664
1063712,2498,AMSTERDAM AVENUE,10033,112,Manhattan,2155,87,-73.93002319335938,40.84986877441406
1063717,509,WEST  183 STREET,10033,112,Manhattan,2155,98,-73.9307632446289,40.84986114501953
1063825,460,AUDUBON AVENUE,10040,112,Manhattan,2158,54,-73.9292984008789,40.85340881347656
1063856,510,WEST 190 STREET,10040,112,Manhattan,2159,77,-73.92768859863281,40.85382080078125
1063913,607,WEST 180 STREET,10033,112,Manhattan,2162,74,-73.93482208251953,40.8491096496582
1063940,620,WEST  182 STREET,10033,112,Manhattan,2165,6,-73.9343032836914,40.8501091003418
1063951,605,WEST  182 STREET,10033,112,Manhattan,2165,45,-73.9337387084961,40.85028839111328
1063983,633,WEST  185 STREET,10033,112,Manhattan,2166,159,-73.93289947509766,40.85227966308594
1064015,325,WADSWORTH AVENUE,10040,112,Manhattan,2168,63,-73.93083953857422,40.85499954223633
1064031,609,WEST 191 STREET,10040,112,Manhattan,2169,42,-73.9299087524414,40.856109619140625
1064265,716,WEST 180 STREET,10033,112,Manhattan,2176,40,-73.93789672851562,40.8496208190918
1064506,407,WEST 205 STREET,10034,112,Manhattan,2202,31,-73.91854858398438,40.86286926269531
1064584,99,MARBLE HILL AVENUE,10463,208,Manhattan,2215,326,-73.9094467163086,40.87715148925781
1064715,200,NAGLE AVENUE,10034,112,Manhattan,2217,35,-73.9233169555664,40.862510681152344
1064716,192,NAGLE AVENUE,10034,112,Manhattan,2217,39,-73.92365264892578,40.862388610839844
1064737,123,POST AVENUE,10034,112,Manhattan,2219,14,-73.91988372802734,40.864349365234375
1064921,98,VERMILYEA AVENUE,10034,112,Manhattan,2235,41,-73.92234802246094,40.86637878417969
1064952,15,COOPER STREET,10034,112,Manhattan,2238,7,-73.92462158203125,40.86724090576172
1070020,346,WEST   53 STREET,10019,104,Manhattan,1043,53,-73.98663330078125,40.76472091674805
1076703,213,WEST  139 STREET,10030,110,Manhattan,2025,24,-73.94254302978516,40.81837844848633
1076723,2809,   8 AVENUE,10039,110,Manhattan,2045,92,-73.9400863647461,40.82583999633789
1076862,694,   9 AVENUE,10036,104,Manhattan,1038,63,-73.9897232055664,40.76189041137695
1077395,35,MADISON STREET,10038,103,Manhattan,116,46,-73.99893951416016,40.71207046508789
1077670,191,AVENUE A,10009,103,Manhattan,439,28,-73.98164367675781,40.729068756103516
1078714,509,EAST   81 STREET,10028,108,Manhattan,1578,6,-73.94872283935547,40.772640228271484
1079236,60,MULBERRY STREET,10013,103,Manhattan,164,16,-73.99925231933594,40.71548080444336
1079257,530,WEST 50 STREET,10019,104,Manhattan,1078,48,-73.9933090209961,40.765079498291016
1079500,640,WEST  139 STREET,10031,109,Manhattan,2087,50,-73.9551010131836,40.82318878173828
1079907,1466,ST NICHOLAS AVENUE,10033,112,Manhattan,2154,69,-73.93231201171875,40.850711822509766
1080036,3856,TENTH AVENUE,10034,112,Manhattan,2219,29,-73.919677734375,40.86404037475586
1080550,148,SEAMAN AVENUE,10034,112,Manhattan,2248,92,-73.9229736328125,40.86914825439453
1080716,2259,   2 AVENUE,10029,111,Manhattan,1665,30,-73.93818664550781,40.796958923339844
1081132,47,WEST   55 STREET,10019,105,Manhattan,1271,14,-73.9767837524414,40.762691497802734
1082396,407,WEST 49 STREET,10019,104,Manhattan,1059,28,-73.98977661132812,40.76322937011719
1082505,50,DELANCEY STREET,10002,103,Manhattan,420,70,-73.99128723144531,40.71984100341797
1083714,24,MULBERRY STREET,10013,103,Manhattan,164,62,-73.99933624267578,40.714168548583984
1085213,1578,   3 AVENUE,10128,108,Manhattan,1517,37,-73.95307159423828,40.7806282043457
1085272,216,EAST  117 STREET,10035,111,Manhattan,1666,40,-73.93890380859375,40.79811096191406
1087369,1982,   2 AVENUE,10029,111,Manhattan,1673,49,-73.94407653808594,40.7878303527832
2000031,494,EAST 138 STREET,10454,201,Bronx,2265,3,-73.919921875,40.80754852294922
2000037,518,EAST 138 STREET,10454,201,Bronx,2265,29,-73.9189682006836,40.807151794433594
2000054,250,BROOK AVENUE,10454,201,Bronx,2266,1,-73.91889953613281,40.80773162841797
2000106,504,BROOK AVENUE,10455,201,Bronx,2274,5,-73.91522216796875,40.81386947631836
2000238,408,EAST  138 STREET,10454,201,Bronx,2282,8,-73.9227294921875,40.8088493347168
2000252,462,EAST 138 STREET,10454,201,Bronx,2282,31,-73.92108917236328,40.808040618896484
2000340,481,EAST 140 STREET,10454,201,Bronx,2285,58,-73.91941833496094,40.8095817565918
2000406,411,EAST 141 STREET,10454,201,Bronx,2286,113,-73.9206771850586,40.81092834472656
2000419,418,EAST 143 STREET,10454,201,Bronx,2287,15,-73.91990661621094,40.81174087524414
2000443,408,EAST 144 STREET,10454,201,Bronx,2288,11,-73.919677734375,40.812461853027344
2000577,41,BRUCKNER BOULEVARD,10454,201,Bronx,2296,56,-73.92707061767578,40.80693054199219
2000585,274,ALEXANDER AVENUE,10454,201,Bronx,2301,4,-73.9244384765625,40.810508728027344
2000590,380,EAST 139 STREET,10454,201,Bronx,2301,22,-73.92304992675781,40.80979919433594
2000871,340,EAST 148 STREET,10451,201,Bronx,2329,68,-73.92051696777344,40.81581115722656
2000872,342,EAST 148 STREET,10451,201,Bronx,2329,69,-73.9204330444336,40.81578826904297
2001258,1042,WASHINGTON AVENUE,10456,203,Bronx,2370,2,-73.90894317626953,40.82707977294922
2001261,1048,WASHINGTON AVENUE,10456,203,Bronx,2370,5,-73.9088363647461,40.827239990234375
2001396,3007,3 AVENUE,10455,201,Bronx,2376,49,-73.91407775878906,40.819400787353516
2001423,428,EAST 157 STREET,10451,201,Bronx,2378,19,-73.9142074584961,40.821048736572266
2001493,422,EAST 161 STREET,10451,203,Bronx,2382,14,-73.91304016113281,40.82368087768555
2001509,430,EAST 162 STREET,10451,203,Bronx,2383,18,-73.91246032714844,40.824241638183594
2001588,15,GOUVERNEUR PLACE,10456,203,Bronx,2388,51,-73.90831756591797,40.82931137084961
2001660,628,COURTLANDT AVENUE,10451,201,Bronx,2398,7,-73.91841125488281,40.8183708190918
2001669,367,EAST  151 STREET,10455,201,Bronx,2398,40,-73.91822814941406,40.818031311035156
2001726,373,EAST  154 STREET,10455,201,Bronx,2401,34,-73.917236328125,40.820011138916016
2001820,271,EAST 150 STREET,10451,201,Bronx,2410,1,-73.92215728759766,40.81809997558594
2001980,291,EAST 162 STREET,10451,204,Bronx,2422,52,-73.91693115234375,40.82645034790039
2002025,314,EAST 164 STREET,10456,204,Bronx,2423,69,-73.91542053222656,40.827579498291016
2002098,1260,CLAY AVENUE,10456,204,Bronx,2427,15,-73.90968322753906,40.83354949951172
2002136,1047,CLAY AVENUE,10456,204,Bronx,2428,33,-73.9129867553711,40.828670501708984
2002138,1043,CLAY AVENUE,10456,204,Bronx,2428,35,-73.9130630493164,40.82854080200195
2002189,312,EAST 165 STREET,10456,204,Bronx,2432,40,-73.91512298583984,40.82863998413086
2002202,992,FINDLAY AVENUE,10456,204,Bronx,2432,59,-73.9148178100586,40.82804870605469
2002210,1042,COLLEGE AVENUE,10456,204,Bronx,2433,11,-73.9149169921875,40.82958984375
2002222,1048,FINDLAY AVENUE,10456,204,Bronx,2433,43,-73.9142837524414,40.82896041870117
2002224,1056,FINDLAY AVENUE,10456,204,Bronx,2433,46,-73.91417694091797,40.829139709472656
2002226,1064,FINDLAY AVENUE,10456,204,Bronx,2433,49,-73.91407775878906,40.82931900024414
2002228,1072,FINDLAY AVENUE,10456,204,Bronx,2433,52,-73.9139633178711,40.829498291015625
2002233,1081,TELLER AVENUE,10456,204,Bronx,2433,61,-73.91351318359375,40.82958984375
2002243,1057,TELLER AVENUE,10456,204,Bronx,2433,72,-73.91383361816406,40.82904052734375
2002244,1055,TELLER AVENUE,10456,204,Bronx,2433,73,-73.91385650634766,40.8289909362793
2002252,1110,COLLEGE AVENUE,10456,204,Bronx,2434,4,-73.91439056396484,40.830501556396484
2002261,1125,FINDLAY AVENUE,10456,204,Bronx,2434,32,-73.9138412475586,40.83074951171875
2002327,1245,FINDLAY AVENUE,10456,204,Bronx,2436,33,-73.9119873046875,40.83393096923828
2002393,1045,COLLEGE AVENUE,10456,204,Bronx,2437,26,-73.91539001464844,40.82984161376953
2002395,1041,COLLEGE AVENUE,10456,204,Bronx,2437,28,-73.91545104980469,40.82973098754883
2002431,1249,COLLEGE AVENUE,10456,204,Bronx,2439,64,-73.91282653808594,40.83415985107422
2002435,1241,COLLEGE AVENUE,10456,204,Bronx,2439,68,-73.91295623779297,40.833961486816406
2002436,1237,COLLEGE AVENUE,10456,204,Bronx,2439,69,-73.91300201416016,40.83388900756836
2002489,955,GRANT AVENUE,10456,204,Bronx,2446,30,-73.91841888427734,40.82817077636719
2002534,1052,GRANT AVENUE,10456,204,Bronx,2448,6,-73.9167709350586,40.82999038696289
2002579,1115,MORRIS AVENUE,10456,204,Bronx,2449,29,-73.91573333740234,40.83110046386719
2002631,1067,GRANT AVENUE,10456,204,Bronx,2451,30,-73.9170913696289,40.83053970336914
2002713,967,SHERMAN AVENUE,10456,204,Bronx,2455,33,-73.9191665649414,40.828678131103516
2002950,1097,WALTON AVENUE,10452,204,Bronx,2478,46,-73.92117309570312,40.83272171020508
2002956,1170,GERARD AVENUE,10452,204,Bronx,2479,12,-73.92051696777344,40.83448028564453
2002960,1173,WALTON AVENUE,10452,204,Bronx,2479,36,-73.92032623291016,40.83414077758789
2003048,974,ANDERSON AVENUE,10452,204,Bronx,2504,72,-73.9271469116211,40.83174133300781
2003053,1055,JEROME AVENUE,10452,204,Bronx,2504,105,-73.92545318603516,40.833099365234375
2003078,1220,SHAKESPEARE AVENUE,10452,204,Bronx,2506,24,-73.92302703857422,40.83742141723633
2003219,1019,NELSON AVENUE,10452,204,Bronx,2512,37,-73.92862701416016,40.83330154418945
2003234,1023,WOODYCREST AVENUE,10452,204,Bronx,2512,76,-73.9277114868164,40.833370208740234
2003271,122,WEST 167 STREET,10452,204,Bronx,2514,62,-73.92646789550781,40.836509704589844
2003379,1380,OGDEN AVENUE,10452,204,Bronx,2522,51,-73.92413330078125,40.84199142456055
2003381,1390,OGDEN AVENUE,10452,204,Bronx,2522,55,-73.9239501953125,40.84223175048828
2003389,1441,EDWARD L GRANT HIGHWAY,10452,204,Bronx,2522,98,-73.92327880859375,40.84288024902344
2003405,145,WEST 170 STREET,10452,204,Bronx,2522,126,-73.9241714477539,40.841331481933594
2003406,903,SUMMIT AVENUE,10452,204,Bronx,2523,43,-73.93164825439453,40.83113098144531
2003418,1027,SUMMIT AVENUE,10452,204,Bronx,2523,132,-73.93002319335938,40.83401870727539
2003430,993,SUMMIT AVENUE,10452,204,Bronx,2523,161,-73.9305419921875,40.833099365234375
2003432,989,SUMMIT AVENUE,10452,204,Bronx,2523,163,-73.93063354492188,40.832950592041016
2003457,1018,SUMMIT AVENUE,10452,204,Bronx,2525,7,-73.92961120605469,40.833648681640625
2003501,1198,UNIVERSITY AVENUE,10452,204,Bronx,2528,10,-73.92727661132812,40.83784103393555
2003513,1201,UNIVERSITY AVENUE,10452,204,Bronx,2528,46,-73.92764282226562,40.83816146850586
2003683,612,BEECH TERRACE,10454,201,Bronx,2555,82,-73.91384887695312,40.80931091308594
2003750,715,EAST 133 STREET,10454,201,Bronx,2562,82,-73.91515350341797,40.80186080932617
2003846,349,CONCORD AVENUE,10454,201,Bronx,2573,24,-73.91062927246094,40.80759048461914
2003917,508,JACKSON AVENUE,10455,201,Bronx,2579,8,-73.90912628173828,40.81222915649414
2003933,511,CONCORD AVENUE,10455,201,Bronx,2579,37,-73.90878295898438,40.81216049194336
2003945,536,CONCORD AVENUE,10455,201,Bronx,2580,18,-73.90796661376953,40.81275177001953
2004260,1122,FRANKLIN AVENUE,10456,203,Bronx,2613,1,-73.9052734375,40.82815933227539
2004268,1133,BOSTON ROAD,10456,203,Bronx,2613,26,-73.90426635742188,40.828208923339844
2004335,711,EAGLE AVENUE,10455,201,Bronx,2617,56,-73.91021728515625,40.81850814819336
2004361,3194,   3 AVENUE,10451,203,Bronx,2620,2,-73.90914154052734,40.82252883911133
2004363,3198,3 AVENUE,10451,203,Bronx,2620,4,-73.90910339355469,40.8226203918457
2004367,3206,3 AVENUE,10451,203,Bronx,2620,8,-73.9089584350586,40.82284927368164
2004410,594,EAGLE AVENUE,10455,201,Bronx,2623,19,-73.91108703613281,40.815120697021484
2004477,879,CAULDWELL AVENUE,10456,203,Bronx,2627,53,-73.90760803222656,40.82223892211914
2004650,1114,JACKSON AVENUE,10456,203,Bronx,2651,57,-73.9030532836914,40.827239990234375
2004732,761,HOME STREET,10456,203,Bronx,2662,41,-73.9014892578125,40.82831954956055
2004763,1221,TINTON AVENUE,10456,203,Bronx,2663,49,-73.90043640136719,40.82987976074219
2004826,976,TINTON AVENUE,10456,203,Bronx,2669,9,-73.90242004394531,40.82347869873047
2004962,721,PROSPECT AVENUE,10455,201,Bronx,2675,57,-73.90315246582031,40.816890716552734
2004983,803,EAST 156 STREET,10455,201,Bronx,2676,22,-73.90392303466797,40.81787872314453
2004990,806,WESTCHESTER AVENUE,10455,201,Bronx,2676,45,-73.90296173095703,40.81861877441406
2005070,822,EAST 169 STREET,10459,203,Bronx,2682,28,-73.89816284179688,40.82941818237305
2005119,673,BECK STREET,10455,202,Bronx,2685,64,-73.90144348144531,40.814979553222656
2005138,663,DAWSON STREET,10455,202,Bronx,2687,1,-73.90263366699219,40.81647872924805
2005183,857,MACY PLACE,10455,202,Bronx,2688,82,-73.90149688720703,40.818519592285156
2005216,856,EAST 165 STREET,10459,202,Bronx,2690,129,-73.8993911743164,40.82374954223633
2005230,866,EAST 164 STREET,10459,202,Bronx,2690,206,-73.8992919921875,40.8231315612793
2005242,1044,PROSPECT AVENUE,10459,202,Bronx,2691,14,-73.89913177490234,40.82477951049805
2005311,1251,STEBBINS AVENUE,10459,202,Bronx,2694,24,-73.89665985107422,40.82863998413086
2005359,941,INTERVALE AVENUE,10459,202,Bronx,2697,45,-73.897216796875,40.82130813598633
2005360,940,STEBBINS AVENUE,10459,202,Bronx,2698,1,-73.898681640625,40.82183074951172
2005441,745,KELLY STREET,10455,202,Bronx,2701,47,-73.89940643310547,40.81718063354492
2005472,918,EAST 165 STREET,10459,202,Bronx,2704,21,-73.89656829833984,40.82365036010742
2005531,770,BECK STREET,10455,202,Bronx,2707,53,-73.8981704711914,40.81652069091797
2005547,958,EAST  156 STREET,10455,202,Bronx,2708,7,-73.89978790283203,40.815940856933594
2005559,740,KELLY STREET,10455,202,Bronx,2708,31,-73.89913177490234,40.816749572753906
2005592,826,BECK STREET,10459,202,Bronx,2709,7,-73.89701843261719,40.8176383972168
2005603,877,INTERVALE AVENUE,10459,202,Bronx,2709,28,-73.89605712890625,40.81827163696289
2005722,725,SOUTHERN BOULEVARD,10455,202,Bronx,2720,30,-73.89866638183594,40.814388275146484
2005795,1076,FOX STREET,10459,202,Bronx,2726,25,-73.89359283447266,40.825950622558594
2005868,925,BRUCKNER BOULEVARD,10459,202,Bronx,2733,24,-73.89292907714844,40.81861114501953
2006064,1161,HOE AVENUE,10459,203,Bronx,2745,37,-73.89116668701172,40.8277587890625
2006088,1020,FAILE STREET,10459,202,Bronx,2748,7501,-73.88923645019531,40.82374954223633
2006096,1036,FAILE STREET,10459,202,Bronx,2748,7501,-73.88928985595703,40.82429885864258
2006130,1021,FAILE STREET,10459,202,Bronx,2749,7501,-73.88983154296875,40.82381057739258
2006178,1137,VYSE AVENUE,10459,203,Bronx,2752,51,-73.89024353027344,40.82735824584961
2006204,1120,BRYANT AVENUE,10459,203,Bronx,2754,61,-73.88873291015625,40.82699966430664
2006258,1030,LONGFELLOW AVENUE,10459,202,Bronx,2756,66,-73.88739776611328,40.82415008544922
2006261,1036,LONGFELLOW AVENUE,10459,202,Bronx,2756,69,-73.88741302490234,40.82435989379883
2006268,1054,LONGFELLOW AVENUE,10459,202,Bronx,2756,76,-73.887451171875,40.8248405456543
2006282,1050,LOWELL STREET,10459,202,Bronx,2757,42,-73.88693237304688,40.82575988769531
2006284,1155,EAST 165 STREET,10459,202,Bronx,2757,50,-73.88717651367188,40.825469970703125
2006307,1150,LONGFELLOW AVENUE,10459,203,Bronx,2758,13,-73.88770294189453,40.82780075073242
2006391,906,BRYANT AVENUE,10474,202,Bronx,2761,159,-73.88672637939453,40.8202018737793
2006393,912,BRYANT AVENUE,10474,202,Bronx,2761,161,-73.88677215576172,40.820369720458984
2006430,813,FAILE STREET,10474,202,Bronx,2762,25,-73.88749694824219,40.8172607421875
2006442,855,FAILE STREET,10474,202,Bronx,2762,59,-73.88760375976562,40.818138122558594
2006452,830,FAILE STREET,10474,202,Bronx,2762,85,-73.88706970214844,40.817840576171875
2006458,858,FAILE STREET,10474,202,Bronx,2762,94,-73.88723754882812,40.8184814453125
2006470,801,BRYANT AVENUE,10474,202,Bronx,2762,123,-73.88646697998047,40.817161560058594
2006595,1202,SPOFFORD AVENUE,10474,202,Bronx,2765,78,-73.89073944091797,40.81357955932617
2006689,619,FAILE STREET,10474,202,Bronx,2766,27,-73.88632202148438,40.812740325927734
2006710,651,BRYANT AVENUE,10474,202,Bronx,2766,72,-73.8856201171875,40.813758850097656
2007162,394,EAST 170 STREET,10456,204,Bronx,2782,184,-73.90824890136719,40.836910247802734
2007252,307,EAST  170 STREET,10456,204,Bronx,2784,37,-73.91008758544922,40.83755874633789
2007333,1654,MONROE AVENUE,10457,204,Bronx,2791,5,-73.90653228759766,40.8431396484375
2007486,1750,TOPPING AVENUE,10457,205,Bronx,2799,11,-73.90543365478516,40.845420837402344
2007522,1821,TOPPING AVENUE,10457,205,Bronx,2800,44,-73.90582275390625,40.847190856933594
2007598,228,EAST TREMONT AVENUE,10457,205,Bronx,2804,19,-73.90474700927734,40.84870147705078
2007715,255,EAST TREMONT AVENUE,10457,205,Bronx,2809,42,-73.90376281738281,40.84906005859375
2007821,1515,SELWYN AVENUE,10457,204,Bronx,2819,51,-73.91056060791016,40.84088897705078
2007880,1770,WALTON AVENUE,10453,205,Bronx,2826,11,-73.90986633300781,40.84769058227539
2007904,1890,WALTON AVENUE,10453,205,Bronx,2827,36,-73.9090805053711,40.84939956665039
2007950,2027,MORRIS AVENUE,10453,205,Bronx,2829,57,-73.9063720703125,40.85266876220703
2007987,1410,GRAND CONCOURSE,10456,204,Bronx,2832,4,-73.91303253173828,40.83898162841797
2008051,100,MARCY PLACE,10452,204,Bronx,2840,49,-73.91673278808594,40.83803176879883
2008120,1459,WYTHE PLACE,10452,204,Bronx,2844,105,-73.91441345214844,40.84067916870117
2008140,20,EAST MT EDEN AVENUE,10452,204,Bronx,2846,37,-73.9142837524414,40.84387969970703
2008226,69,EAST 176 STREET,10453,205,Bronx,2851,29,-73.90986633300781,40.84852981567383
2008239,1881,WALTON AVENUE,10453,205,Bronx,2852,27,-73.90959167480469,40.849361419677734
2008301,1485,MACOMBS ROAD,10452,204,Bronx,2857,28,-73.91829681396484,40.84246826171875
2008550,1962,UNIVERSITY AVENUE,10453,205,Bronx,2868,119,-73.91150665283203,40.85398864746094
2008551,1966,UNIVERSITY AVENUE,10453,205,Bronx,2868,121,-73.91143035888672,40.85409164428711
2008553,1974,UNIVERSITY AVENUE,10453,205,Bronx,2868,125,-73.91127014160156,40.85429000854492
2008704,1540,JESUP AVENUE,10452,204,Bronx,2872,277,-73.91818237304688,40.8443603515625
2008839,1713,NELSON AVENUE,10453,205,Bronx,2876,131,-73.91673278808594,40.84872817993164
2008862,81,WEST 174 STREET,10453,205,Bronx,2876,200,-73.917236328125,40.84735107421875
2008870,1639,NELSON AVENUE,10453,205,Bronx,2876,225,-73.91889953613281,40.84708023071289
2008975,1812,PALISADE PLACE,10453,205,Bronx,2877,551,-73.91826629638672,40.85231018066406
2009099,1805,UNIVERSITY AVENUE,10453,205,Bronx,2879,123,-73.91536712646484,40.851009368896484
2009149,1898,BILLINGSLEY TERRACE,10453,205,Bronx,2879,263,-73.91625213623047,40.853858947753906
2009266,1324,CLAY AVENUE,10456,204,Bronx,2887,10,-73.90897369384766,40.83477020263672
2009360,1818,CLAY AVENUE,10457,205,Bronx,2891,61,-73.90438079833984,40.84703826904297
2009599,501,EAST 176 STREET,10457,206,Bronx,2924,1,-73.89745330810547,40.84566879272461
2009625,3716,3 AVENUE,10456,203,Bronx,2926,8,-73.90274810791016,40.83563995361328
2009771,644,EAST 170 STREET,10456,203,Bronx,2935,13,-73.89929962158203,40.833858489990234
2009825,1451,PROSPECT AVENUE,10456,203,Bronx,2937,45,-73.89724731445312,40.834129333496094
2009839,1404,CROTONA PARK EAST,10460,203,Bronx,2938,3,-73.89649200439453,40.834320068359375
2009917,710,EAST 175 STREET,10457,206,Bronx,2948,8,-73.89324188232422,40.8424186706543
2009965,709,FAIRMOUNT PLACE,10457,206,Bronx,2950,30,-73.89129638671875,40.844390869140625
2010048,815,FAIRMOUNT PLACE,10460,206,Bronx,2955,36,-73.88802337646484,40.84244918823242
2010050,793,FAIRMOUNT PLACE,10460,206,Bronx,2955,44,-73.8885498046875,40.84270095825195
2010091,887,CROTONA PARK NORTH,10460,206,Bronx,2957,1,-73.88876342773438,40.839420318603516
2010092,861,CROTONA PARK NORTH,10460,206,Bronx,2957,9,-73.88931274414062,40.8396110534668
2010103,870,EAST 175 STREET,10460,206,Bronx,2957,34,-73.88851165771484,40.83982849121094
2010128,1811,WATERLOO PLACE,10460,206,Bronx,2958,62,-73.88810729980469,40.840049743652344
2010167,771,EAST 169 STREET,10456,203,Bronx,2961,13,-73.89940643310547,40.83095932006836
2010189,1384,BOSTON ROAD,10456,203,Bronx,2962,15,-73.89775848388672,40.8325309753418
2010353,1348,PROSPECT AVENUE,10459,203,Bronx,2970,16,-73.89703369140625,40.829830169677734
2010358,820,FREEMAN STREET,10459,203,Bronx,2970,22,-73.8968734741211,40.83026885986328
2010423,1330,CHISHOLM STREET,10459,203,Bronx,2972,24,-73.8955078125,40.831539154052734
2010450,1302,STEBBINS AVENUE,10459,203,Bronx,2973,53,-73.89507293701172,40.829898834228516
2010459,1234,INTERVALE AVENUE,10459,203,Bronx,2974,9,-73.89425659179688,40.8288688659668
2010511,1550,MINFORD PLACE,10460,203,Bronx,2977,139,-73.88980865478516,40.83525848388672
2010568,1460,SOUTHERN BOULEVARD,10460,203,Bronx,2981,1,-73.89037322998047,40.8324089050293
2010690,1892,DALY AVENUE,10460,206,Bronx,2992,16,-73.88459014892578,40.84001922607422
2010738,1453,BRYANT AVENUE,10459,203,Bronx,2994,25,-73.88839721679688,40.83148956298828
2010756,1490,VYSE AVENUE,10460,203,Bronx,2995,16,-73.88804626464844,40.83274841308594
2010770,1485,BRYANT AVENUE,10460,203,Bronx,2995,36,-73.88780975341797,40.832481384277344
2010771,1481,BRYANT AVENUE,10460,203,Bronx,2995,37,-73.88787078857422,40.83237838745117
2010823,1448,BRYANT AVENUE,10459,203,Bronx,2999,23,-73.88794708251953,40.831199645996094
2010842,1460,BRYANT AVENUE,10460,203,Bronx,3000,4,-73.88764953613281,40.83169937133789
2010854,1494,BRYANT AVENUE,10460,203,Bronx,3000,18,-73.88712310791016,40.83258056640625
2010880,1552,BRYANT AVENUE,10460,203,Bronx,3001,58,-73.8861312866211,40.834251403808594
2010912,1313,WEST FARMS ROAD,10459,203,Bronx,3007,43,-73.88735961914062,40.829769134521484
2011078,375,EAST 188 STREET,10458,205,Bronx,3026,59,-73.89334106445312,40.8602294921875
2011203,416,EAST 187 STREET,10458,206,Bronx,3031,47,-73.89334106445312,40.85826873779297
2011213,4575,PARK AVENUE,10458,206,Bronx,3031,69,-73.89447784423828,40.856781005859375
2011215,2406,WEBSTER AVENUE,10458,206,Bronx,3032,2,-73.89350891113281,40.858848571777344
2011216,2408,WEBSTER AVENUE,10458,206,Bronx,3032,3,-73.89346313476562,40.85892868041992
2011233,413,EAST 187 STREET,10458,206,Bronx,3032,58,-73.89330291748047,40.85874938964844
2011287,2037,WASHINGTON AVENUE,10457,206,Bronx,3036,53,-73.89671325683594,40.85020065307617
2011298,4418,PARK AVENUE,10457,206,Bronx,3037,37,-73.89581298828125,40.852779388427734
2011324,2179,WASHINGTON AVENUE,10457,206,Bronx,3037,77,-73.89466857910156,40.85380172729492
2011388,459,EAST 185 STREET,10458,206,Bronx,3039,68,-73.89273071289062,40.85689163208008
2011511,2158,BATHGATE AVENUE,10457,206,Bronx,3048,2,-73.89396667480469,40.85192108154297
2011544,2196,WASHINGTON AVENUE,10457,206,Bronx,3050,6,-73.893798828125,40.85408020019531
2011547,2268,WASHINGTON AVENUE,10457,206,Bronx,3050,20,-73.89317321777344,40.854801177978516
2011602,4533,3 AVENUE,10458,206,Bronx,3052,18,-73.89100646972656,40.854408264160156
2011649,2344,LORILLARD PLACE,10458,206,Bronx,3054,2,-73.89008331298828,40.85503005981445
2011989,620,EAST 178 STREET,10457,206,Bronx,3068,93,-73.89240264892578,40.846588134765625
2012006,2070,ARTHUR AVENUE,10457,206,Bronx,3069,63,-73.89169311523438,40.8486213684082
2012021,2025,HUGHES AVENUE,10457,206,Bronx,3069,97,-73.8914566040039,40.848060607910156
2012023,2019,HUGHES AVENUE,10457,206,Bronx,3069,99,-73.8913803100586,40.847869873046875
2012092,624,EAST 183 STREET,10458,206,Bronx,3071,53,-73.88836669921875,40.85261917114258
2012114,2303,HUGHES AVENUE,10458,206,Bronx,3072,23,-73.8880615234375,40.853031158447266
2012150,2334,HUGHES AVENUE,10458,206,Bronx,3074,4,-73.88762664794922,40.85396957397461
2012165,2379,BELMONT AVENUE,10458,206,Bronx,3074,31,-73.88678741455078,40.85449981689453
2012172,2384,BELMONT AVENUE,10458,206,Bronx,3074,43,-73.88619995117188,40.854469299316406
2012205,2443,CAMBRELENG AVENUE,10458,206,Bronx,3075,54,-73.8846435546875,40.85581970214844
2012297,1980,BELMONT AVENUE,10457,206,Bronx,3079,53,-73.89108276367188,40.84642028808594
2012300,1986,BELMONT AVENUE,10457,206,Bronx,3079,56,-73.89096069335938,40.84659957885742
2012308,676,EAST 179 STREET,10457,206,Bronx,3079,67,-73.89031982421875,40.84682083129883
2012314,1978,BELMONT AVENUE,10457,206,Bronx,3079,108,-73.89111328125,40.846370697021484
2012342,672,EAST 180 STREET,10457,206,Bronx,3080,88,-73.88947296142578,40.84817123413086
2012357,2113,BELMONT AVENUE,10457,206,Bronx,3081,17,-73.88973999023438,40.84912109375
2012389,2153,BELMONT AVENUE,10457,206,Bronx,3082,49,-73.88906860351562,40.850181579589844
2012528,2309,BEAUMONT AVENUE,10458,206,Bronx,3089,59,-73.8855209350586,40.85261154174805
2012546,689,EAST 187 STREET,10458,206,Bronx,3090,31,-73.88490295410156,40.854461669921875
2012604,693,EAST 189 STREET,10458,206,Bronx,3091,95,-73.88336181640625,40.856239318847656
2012605,701,EAST 189 STREET,10458,206,Bronx,3091,96,-73.88330078125,40.8563117980957
2012656,2006,CROTONA AVENUE,10457,206,Bronx,3095,5,-73.8894271850586,40.846988677978516
2012667,2068,CROTONA AVENUE,10457,206,Bronx,3095,18,-73.8890380859375,40.847450256347656
2012697,716,EAST  181 STREET,10457,206,Bronx,3096,56,-73.88778686523438,40.848419189453125
2012703,2117,CLINTON AVENUE,10457,206,Bronx,3096,63,-73.88760375976562,40.848209381103516
2012764,2162,CROTONA AVENUE,10457,206,Bronx,3098,20,-73.88670349121094,40.84975814819336
2012765,2164,CROTONA AVENUE,10457,206,Bronx,3098,21,-73.88664245605469,40.84981918334961
2012766,2166,CROTONA AVENUE,10457,206,Bronx,3098,22,-73.88658142089844,40.84986877441406
2012779,735,EAST 182 STREET,10457,206,Bronx,3099,10,-73.88542175292969,40.849998474121094
2012835,2364,CROTONA AVENUE,10458,206,Bronx,3102,27,-73.88350677490234,40.85346984863281
2012873,2357,CROTONA AVENUE,10458,206,Bronx,3103,36,-73.88406372070312,40.853641510009766
2012877,2327,CROTONA AVENUE,10458,206,Bronx,3103,47,-73.88440704345703,40.85295104980469
2012912,2470,BEAUMONT AVENUE,10458,206,Bronx,3105,23,-73.88321685791016,40.85588073730469
2012920,2425,CROTONA AVENUE,10458,206,Bronx,3105,49,-73.88346862792969,40.85483169555664
2012931,2000,PROSPECT AVENUE,10457,206,Bronx,3106,8,-73.88783264160156,40.84519958496094
2012933,2009,MAPES AVENUE,10460,206,Bronx,3106,26,-73.88729858398438,40.845069885253906
2012949,817,EAST 178 STREET,10460,206,Bronx,3107,29,-73.88636779785156,40.84437942504883
2013028,2297,SOUTHERN BOULEVARD,10460,206,Bronx,3113,37,-73.88284301757812,40.85057067871094
2013064,2440,PROSPECT AVENUE,10458,206,Bronx,3115,17,-73.88189697265625,40.85472869873047
2013099,2116,CROTONA PARKWAY,10460,206,Bronx,3119,7,-73.88352966308594,40.84614944458008
2013177,2112,HONEYWELL AVENUE,10460,206,Bronx,3125,6,-73.88188934326172,40.84526824951172
2013317,2160,TIEBOUT AVENUE,10457,205,Bronx,3143,130,-73.89814758300781,40.85451889038086
2013318,363,EAST 180 STREET,10457,205,Bronx,3143,132,-73.8985824584961,40.85211944580078
2013321,2240,TIEBOUT AVENUE,10457,205,Bronx,3143,150,-73.89759063720703,40.8555793762207
2013330,386,EAST 184 STREET,10458,205,Bronx,3143,242,-73.89595031738281,40.85681915283203
2013480,2489,TIEBOUT AVENUE,10458,205,Bronx,3148,25,-73.89530944824219,40.86164855957031
2013532,2098,RYER AVENUE,10457,205,Bronx,3149,80,-73.90039825439453,40.85334014892578
2013642,217,EAST BURNSIDE AVENUE,10457,205,Bronx,3156,35,-73.9027328491211,40.85213088989258
2013703,213,EAST 181 STREET,10457,205,Bronx,3157,1,-73.90090942382812,40.85462951660156
2013721,2250,GRAND CONCOURSE,10457,205,Bronx,3158,14,-73.89993286132812,40.856510162353516
2013817,2546,CRESTON AVENUE,10468,207,Bronx,3167,36,-73.89705657958984,40.86384963989258
2013845,2065,CRESTON AVENUE,10453,205,Bronx,3169,55,-73.90454864501953,40.85343933105469
2013885,2324,MORRIS AVENUE,10468,205,Bronx,3172,11,-73.90113830566406,40.858768463134766
2013969,2160,WALTON AVENUE,10453,205,Bronx,3180,9,-73.90421295166016,40.8555908203125
2014174,2109,DAVIDSON AVENUE,10453,205,Bronx,3194,40,-73.90709686279297,40.85573959350586
2014175,2107,DAVIDSON AVENUE,10453,205,Bronx,3194,41,-73.90715026855469,40.85567092895508
2014179,2099,DAVIDSON AVENUE,10453,205,Bronx,3194,45,-73.90735626220703,40.855438232421875
2014205,2205,DAVIDSON AVENUE,10453,205,Bronx,3196,18,-73.90579986572266,40.857688903808594
2014233,2290,DAVIDSON AVENUE,10468,207,Bronx,3197,23,-73.90431213378906,40.859039306640625
2014256,2353,DAVIDSON AVENUE,10468,207,Bronx,3198,34,-73.9041519165039,40.860389709472656
2014359,20,WEST 190 STREET,10468,207,Bronx,3200,14,-73.90106964111328,40.86391830444336
2014497,61,WEST 181 STREET,10453,205,Bronx,3207,27,-73.9076919555664,40.856781005859375
2014603,2328,UNIVERSITY AVENUE,10468,207,Bronx,3212,42,-73.90569305419922,40.861419677734375
2014610,2352,UNIVERSITY AVENUE,10468,207,Bronx,3212,55,-73.90508270263672,40.862098693847656
2014626,2422,UNIVERSITY AVENUE,10468,207,Bronx,3213,9,-73.90399169921875,40.863399505615234
2014627,2426,UNIVERSITY AVENUE,10468,207,Bronx,3213,11,-73.90392303466797,40.86349868774414
2014659,2529B,GRAND AVENUE,10468,207,Bronx,3214,149,-73.90151977539062,40.86555099487305
2014918,2280,LORING PLACE,10468,207,Bronx,3225,15,-73.90850067138672,40.86109924316406
2014921,2277,ANDREWS AVENUE,10468,207,Bronx,3225,27,-73.90825653076172,40.8608283996582
2015029,1932,HENNESSY PLACE,10453,205,Bronx,3228,90,-73.91484832763672,40.85514831542969
2015099,2241,SEDGWICK AVENUE,10468,207,Bronx,3234,34,-73.91087341308594,40.8609504699707
2015138,160,WEST KINGSBRIDGE ROAD,10463,207,Bronx,3237,97,-73.904541015625,40.87002944946289
2015310,2755,RESERVOIR AVENUE,10468,208,Bronx,3249,38,-73.89895629882812,40.87004852294922
2015373,2776,SEDGWICK AVENUE,10468,208,Bronx,3249,190,-73.90202331542969,40.87131881713867
2015418,2856,WEBB AVENUE,10468,208,Bronx,3250,71,-73.90032958984375,40.873390197753906
2015554,3036,KINGSBRIDGE TERRACE,10463,208,Bronx,3253,193,-73.90122985839844,40.876399993896484
2016405,391,EAST 198 STREET,10458,207,Bronx,3279,1,-73.885986328125,40.86640930175781
2016475,2676,MARION AVENUE,10458,207,Bronx,3282,29,-73.88995361328125,40.865089416503906
2016505,2711,DECATUR AVENUE,10458,207,Bronx,3283,48,-73.88871765136719,40.865318298339844
2016590,2557,MARION AVENUE,10458,207,Bronx,3286,19,-73.89266967773438,40.862831115722656
2016602,2565,MARION AVENUE,10458,207,Bronx,3286,51,-73.89241027832031,40.86302185058594
2016639,2677,MARION AVENUE,10458,207,Bronx,3287,95,-73.89060974121094,40.865318298339844
2016685,2795,MARION AVENUE,10458,207,Bronx,3289,35,-73.88741302490234,40.86717987060547
2016844,2674,BRIGGS AVENUE,10458,207,Bronx,3294,23,-73.8918685913086,40.865760803222656
2016926,2847,BAINBRIDGE AVENUE,10458,207,Bronx,3296,63,-73.8880386352539,40.86901092529297
2017013,2707,BRIGGS AVENUE,10458,207,Bronx,3300,56,-73.89173126220703,40.8667106628418
2017141,2754,GRAND CONCOURSE,10458,207,Bronx,3304,85,-73.89234924316406,40.867919921875
2017142,2760,GRAND CONCOURSE,10458,207,Bronx,3304,92,-73.8921127319336,40.86819076538086
2017399,116,EAST MOSHOLU PARKWAY SOUTH,10458,207,Bronx,3313,40,-73.88374328613281,40.876068115234375
2017425,104,EAST 196 STREET,10468,207,Bronx,3314,39,-73.89404296875,40.86817169189453
2017870,3066,WEBSTER AVENUE,10467,207,Bronx,3330,46,-73.8780288696289,40.87009048461914
2017885,3080,DECATUR AVENUE,10467,207,Bronx,3331,30,-73.87841033935547,40.871028900146484
2017910,353,EAST MOSHOLU PARKWAY NORT,10467,207,Bronx,3332,1,-73.87996673583984,40.87120819091797
2018015,179,EAST MOSHOLU PARKWAY NORTH,10467,207,Bronx,3335,139,-73.88115692138672,40.87527084350586
2018102,282,EAST 205 STREET,10467,207,Bronx,3341,10,-73.8786392211914,40.87382125854492
2018217,281,RESERVOIR PLACE,10467,207,Bronx,3343,184,-73.87557983398438,40.87902069091797
2018316,3143,HULL AVENUE,10467,207,Bronx,3345,36,-73.87754821777344,40.8732795715332
2018381,3324,PERRY AVENUE,10467,207,Bronx,3348,13,-73.87457275390625,40.87760925292969
2018607,3342,DECATUR AVENUE,10467,207,Bronx,3355,100,-73.87267303466797,40.87759017944336
2018687,409,EAST 204 STREET,10467,207,Bronx,3357,252,-73.87635803222656,40.8709602355957
2021448,1825,LACOMBE AVENUE,10473,209,Bronx,3523,5,-73.86116027832031,40.815330505371094
2021710,1756,SEWARD AVENUE,10473,209,Bronx,3555,38,-73.8653335571289,40.81861877441406
2021745,636,COMMONWEALTH AVENUE,10473,209,Bronx,3556,20,-73.8647232055664,40.81789016723633
2021854,630,TAYLOR AVENUE,10473,209,Bronx,3559,23,-73.86195373535156,40.818260192871094
2021979,737,NOBLE AVENUE,10473,209,Bronx,3593,47,-73.86773681640625,40.81986999511719
2022024,1757,SEWARD AVENUE,10473,209,Bronx,3595,1,-73.86544036865234,40.81909942626953
2022082,1773,SEWARD AVENUE,10473,209,Bronx,3596,22,-73.86460876464844,40.819210052490234
2023435,1041,ELDER AVENUE,10472,209,Bronx,3713,48,-73.87864685058594,40.82509994506836
2023437,1037,ELDER AVENUE,10472,209,Bronx,3713,50,-73.87861633300781,40.82497024536133
2023440,1031,ELDER AVENUE,10472,209,Bronx,3713,53,-73.87857818603516,40.824771881103516
2023458,1024,ELDER AVENUE,10472,209,Bronx,3714,14,-73.87798309326172,40.824710845947266
2023510,1019,WARD AVENUE,10472,209,Bronx,3715,61,-73.87657928466797,40.82440948486328
2023522,1040,WARD AVENUE,10472,209,Bronx,3716,21,-73.87619018554688,40.82522964477539
2023526,1048,WARD AVENUE,10472,209,Bronx,3716,25,-73.87625122070312,40.82550048828125
2023538,1051,MANOR AVENUE,10472,209,Bronx,3716,44,-73.87592315673828,40.825679779052734
2023540,1047,MANOR AVENUE,10472,209,Bronx,3716,46,-73.87589263916016,40.8255500793457
2023544,1039,MANOR AVENUE,10472,209,Bronx,3716,50,-73.87581634521484,40.825279235839844
2023546,1035,MANOR AVENUE,10472,209,Bronx,3716,52,-73.87579345703125,40.82514190673828
2023548,1031,MANOR AVENUE,10472,209,Bronx,3716,54,-73.87576293945312,40.825008392333984
2023552,1023,MANOR AVENUE,10472,209,Bronx,3716,58,-73.87568664550781,40.82474136352539
2023723,1173,COLGATE AVENUE,10472,209,Bronx,3736,49,-73.88215637207031,40.82788848876953
2023822,1144,WHEELER AVENUE,10472,209,Bronx,3739,24,-73.8795394897461,40.827301025390625
2023830,1160,WHEELER AVENUE,10472,209,Bronx,3739,32,-73.8796615600586,40.82783889770508
2023878,1115,BOYNTON AVENUE,10472,209,Bronx,3740,69,-73.87812042236328,40.826900482177734
2023894,1136,BOYNTON AVENUE,10472,209,Bronx,3741,21,-73.87764739990234,40.82735061645508
2023943,1159,MANOR AVENUE,10472,209,Bronx,3742,51,-73.87653350830078,40.8282585144043
2024043,1145,FTELEY AVENUE,10472,209,Bronx,3747,56,-73.87164306640625,40.82835006713867
2024051,1127,FTELEY AVENUE,10472,209,Bronx,3747,65,-73.87151336669922,40.82780838012695
2024053,1121,FTELEY AVENUE,10472,209,Bronx,3747,67,-73.8714828491211,40.82767105102539
2024068,1122,METCALF AVENUE,10472,209,Bronx,3747,100,-73.87188720703125,40.82789993286133
2024072,1130,METCALF AVENUE,10472,209,Bronx,3747,104,-73.87196350097656,40.82817077636719
2024141,1150,FTELEY AVENUE,10472,209,Bronx,3748,100,-73.87116241455078,40.82884979248047
2024164,1125,NOBLE AVENUE,10472,209,Bronx,3749,67,-73.86965942382812,40.82809066772461
2024539,1144,WHITE PLAINS ROAD,10472,209,Bronx,3759,24,-73.86102294921875,40.83005905151367
2024561,1115,VIRGINIA AVENUE,10472,209,Bronx,3759,68,-73.86012268066406,40.828948974609375
2024613,1226,ROSEDALE AVENUE,10472,209,Bronx,3761,17,-73.8685073852539,40.83005142211914
2024644,1220,COMMONWEALTH AVENUE,10472,209,Bronx,3762,17,-73.8676528930664,40.83047866821289
2024660,1227,ST LAWRENCE AVENUE,10472,209,Bronx,3762,49,-73.86731719970703,40.830631256103516
2024712,1815,GLEASON AVENUE,10472,209,Bronx,3764,2,-73.86528015136719,40.830230712890625
2024713,1813,GLEASON AVENUE,10472,209,Bronx,3764,3,-73.8653564453125,40.83021926879883
2024810,1849,GLEASON AVENUE,10472,209,Bronx,3766,6,-73.86369323730469,40.830448150634766
2024867,1250,LELAND AVENUE,10472,209,Bronx,3767,39,-73.86325073242188,40.83195114135742
2024876,1233,WHITE PLAINS ROAD,10472,209,Bronx,3767,74,-73.86260986328125,40.83161926269531
2024956,1245,BRONX RIVER AVENUE,10472,209,Bronx,3769,44,-73.88287353515625,40.829769134521484
2025050,1226,EVERGREEN AVENUE,10472,209,Bronx,3771,14,-73.88096618652344,40.82936096191406
2025161,1533,WESTCHESTER AVENUE,10472,209,Bronx,3773,3,-73.87863159179688,40.82889938354492
2025162,1531,WESTCHESTER AVENUE,10472,209,Bronx,3773,5,-73.87877655029297,40.82889175415039
2025349,1255,STRATFORD AVENUE,10472,209,Bronx,3776,50,-73.87621307373047,40.83102035522461
2025446,1256,FTELEY AVENUE,10472,209,Bronx,3781,15,-73.87171173095703,40.83116912841797
2025543,1256,NOBLE AVENUE,10472,209,Bronx,3783,12,-73.869873046875,40.83148956298828
2025544,1258,NOBLE AVENUE,10472,209,Bronx,3783,13,-73.86988067626953,40.83155822753906
2025920,1958,CROSS BRONX EXPRESSWAY,10472,209,Bronx,3794,41,-73.85829162597656,40.83211135864258
2026292,2124,CHATTERTON AVENUE,10472,209,Bronx,3806,20,-73.8521728515625,40.82783889770508
2026319,2147,BRUCKNER BOULEVARD,10472,209,Bronx,3806,59,-73.85112762451172,40.82767868041992
2026326,2133,BRUCKNER BOULEVARD,10472,209,Bronx,3806,66,-73.85175323486328,40.827598571777344
2026478,2136,GLEASON AVENUE,10462,209,Bronx,3811,18,-73.85265350341797,40.83150100708008
2027393,1319,ELDER AVENUE,10472,209,Bronx,3862,36,-73.88020324707031,40.83174133300781
2027476,1349,STRATFORD AVENUE,10472,209,Bronx,3866,49,-73.87670135498047,40.833099365234375
2027502,1310,STRATFORD AVENUE,10472,209,Bronx,3867,10,-73.87589263916016,40.832088470458984
2027504,1314,STRATFORD AVENUE,10472,209,Bronx,3867,12,-73.87592315673828,40.83222961425781
2027506,1318,STRATFORD AVENUE,10472,209,Bronx,3867,14,-73.8759536743164,40.83237838745117
2027507,1320,STRATFORD AVENUE,10472,209,Bronx,3867,15,-73.87596893310547,40.83245086669922
2027571,1311,HARROD AVENUE,10472,209,Bronx,3868,62,-73.87461853027344,40.83232879638672
2027761,1361,ROSEDALE AVENUE,10472,209,Bronx,3873,42,-73.87014770507812,40.83430099487305
2027866,1302,ST LAWRENCE AVENUE,10472,209,Bronx,3876,6,-73.86727905273438,40.83295822143555
2027944,1350,TAYLOR AVENUE,10472,209,Bronx,3878,30,-73.86546325683594,40.833770751953125
2028090,1425,CROES AVENUE,10472,209,Bronx,3892,49,-73.87232971191406,40.83546829223633
2028274,1445,LELAND AVENUE,10460,209,Bronx,3901,49,-73.8646469116211,40.83673858642578
2028281,1421,LELAND AVENUE,10460,209,Bronx,3901,59,-73.86454010009766,40.8360595703125
2028427,1523,ROSEDALE AVENUE,10460,209,Bronx,3913,44,-73.87037658691406,40.83855056762695
2028505,1495,BEACH AVENUE,10460,209,Bronx,3916,22,-73.86759185791016,40.837791442871094
2028526,1528,ROSEDALE AVENUE,10460,209,Bronx,3917,13,-73.86979675292969,40.83884048461914
2028527,1530,ROSEDALE AVENUE,10460,209,Bronx,3917,14,-73.86979675292969,40.83890151977539
2028635,1512,BEACH AVENUE,10460,209,Bronx,3920,33,-73.8670425415039,40.83797073364258
2028682,1501,WHITE PLAINS ROAD,10462,209,Bronx,3923,39,-73.86392211914062,40.83805847167969
2041847,2512,TRATMAN AVENUE,10461,210,Bronx,3980,20,-73.84478759765625,40.839359283447266
2042055,1713,ZEREGA AVENUE,10462,210,Bronx,3991,64,-73.85176849365234,40.83998107910156
2042428,1123,EAST TREMONT AVENUE,10460,206,Bronx,4004,9,-73.8762435913086,40.84014129638672
2042528,1731,VAN BUREN STREET,10460,211,Bronx,4016,19,-73.87110137939453,40.84178924560547
2042547,1720,ADAMS STREET,10460,211,Bronx,4016,43,-73.87091827392578,40.841190338134766
2042606,1728,VAN BUREN STREET,10460,211,Bronx,4019,45,-73.87061309814453,40.84197998046875
2042634,1723,TAYLOR AVENUE,10460,211,Bronx,4020,22,-73.86946105957031,40.842430114746094
2042638,1711,TAYLOR AVENUE,10460,211,Bronx,4020,26,-73.86921691894531,40.84220886230469
2042714,1641,MELVILLE STREET,10460,211,Bronx,4022,10,-73.86929321289062,40.841190338134766
2042757,1607,TAYLOR AVENUE,10460,211,Bronx,4023,25,-73.86773681640625,40.8408203125
2042806,1632,TAYLOR AVENUE,10460,211,Bronx,4024,55,-73.86788940429688,40.84162902832031
2042835,622,MEAD STREET,10460,211,Bronx,4026,10,-73.86652374267578,40.84225082397461
2042836,624,MEAD STREET,10460,211,Bronx,4026,11,-73.86646270751953,40.84230041503906
2043211,1659,WALLACE AVENUE,10462,211,Bronx,4039,13,-73.86299133300781,40.84370040893555
2043579,1848,HOLLAND AVENUE,10462,211,Bronx,4052,25,-73.86457824707031,40.84706115722656
2046567,1822,EDISON AVENUE,10461,210,Bronx,4194,6,-73.83209991455078,40.8477897644043
2046676,3108,ARNOW PLACE,10461,210,Bronx,4199,48,-73.82969665527344,40.84999084472656
2047775,2037,BURR AVENUE,10461,210,Bronx,4249,37,-73.82784271240234,40.853858947753906
2047837,664,SAGAMORE STREET,10462,211,Bronx,4253,72,-73.86872863769531,40.84886932373047
2049141,2031,TOMLINSON AVENUE,10461,211,Bronx,4305,11,-73.856201171875,40.85456085205078
2051211,611,WARING AVENUE,10467,211,Bronx,4424,4,-73.86990356445312,40.861629486083984
2051508,774,ALLERTON AVENUE,10467,211,Bronx,4439,76,-73.86418151855469,40.86521911621094
2052115,2551,HERING AVENUE,10469,211,Bronx,4457,61,-73.8541488647461,40.86452102661133
2053676,2749,WALLACE AVENUE,10467,211,Bronx,4511,38,-73.86469268798828,40.8672981262207
2053737,2715,BARNES AVENUE,10467,211,Bronx,4512,56,-73.86377716064453,40.86608123779297
2053936,1060,ARNOW AVENUE,10469,211,Bronx,4519,29,-73.85714721679688,40.86745834350586
2054837,2911,HOLLAND AVENUE,10467,211,Bronx,4547,52,-73.8656005859375,40.86827850341797
2054893,809,ARNOW AVENUE,10467,211,Bronx,4550,3,-73.86284637451172,40.86804962158203
2055596,767,ADEE AVENUE,10467,212,Bronx,4570,2,-73.86459350585938,40.86988830566406
2055612,3046,HOLLAND AVENUE,10467,212,Bronx,4570,23,-73.86493682861328,40.870941162109375
2055638,3028,WALLACE AVENUE,10467,212,Bronx,4571,16,-73.864013671875,40.870460510253906
2055662,805,ADEE AVENUE,10467,212,Bronx,4572,7,-73.8631362915039,40.869869232177734
2055669,3018,BARNES AVENUE,10467,212,Bronx,4572,16,-73.86308288574219,40.87044906616211
2055689,3015,MATTHEWS AVENUE,10467,212,Bronx,4572,42,-73.86270904541016,40.87036895751953
2056251,3233,CRUGER AVENUE,10467,212,Bronx,4596,46,-73.86640930175781,40.87239074707031
2056256,3211,CRUGER AVENUE,10467,212,Bronx,4596,53,-73.86641693115234,40.87187957763672
2056265,3230,CRUGER AVENUE,10467,212,Bronx,4597,21,-73.86583709716797,40.872398376464844
2056279,768,SOUTH OAK DRIVE,10467,212,Bronx,4598,22,-73.8644027709961,40.87200927734375
2056280,3209,WALLACE AVENUE,10467,212,Bronx,4598,24,-73.86454010009766,40.87184143066406
2056378,780,BARTHOLDI STREET,10467,212,Bronx,4604,15,-73.86373138427734,40.87372970581055
2056483,3214,BRONXWOOD AVENUE,10469,212,Bronx,4608,12,-73.86100769042969,40.87192153930664
2056485,3226,BRONXWOOD AVENUE,10469,212,Bronx,4608,17,-73.86099243164062,40.87228012084961
2057080,3311,COLDEN AVENUE,10469,212,Bronx,4634,35,-73.85964965820312,40.87350845336914
2057346,3645,OLINVILLE AVENUE,10467,212,Bronx,4645,64,-73.866943359375,40.88113021850586
2057347,3643,OLINVILLE AVENUE,10467,212,Bronx,4645,65,-73.86695861816406,40.881080627441406
2057478,644,EAST 219 STREET,10467,212,Bronx,4650,42,-73.86492919921875,40.8840217590332
2057658,3857,WHITE PLAINS ROAD,10467,212,Bronx,4656,45,-73.8621826171875,40.88533020019531
2057729,739,TILDEN STREET,10467,212,Bronx,4659,67,-73.8630599975586,40.87704849243164
2057745,3550,HOLLAND AVENUE,10467,212,Bronx,4660,11,-73.86387634277344,40.87812042236328
2057751,3553,CARLISLE PLACE,10467,212,Bronx,4660,29,-73.86344909667969,40.878231048583984
2057766,764,EAST 213 STREET,10467,212,Bronx,4660,54,-73.86248779296875,40.87815856933594
2057769,3535,BARNES AVENUE,10467,212,Bronx,4660,61,-73.86193084716797,40.87799072265625
2057775,791,EAST 211 STREET,10467,212,Bronx,4660,67,-73.86212921142578,40.87773895263672
2057803,3602,HOLLAND AVENUE,10467,212,Bronx,4661,40,-73.86353302001953,40.878849029541016
2057818,780,EAST  214 STREET,10467,212,Bronx,4661,64,-73.86222839355469,40.878910064697266
2057834,741,EAST 213 STREET,10467,212,Bronx,4661,92,-73.86322784423828,40.87886047363281
2057859,3642,HOLLAND AVENUE,10467,212,Bronx,4662,39,-73.86316680908203,40.8797492980957
2057860,3644,HOLLAND AVENUE,10467,212,Bronx,4662,40,-73.86315155029297,40.87981033325195
2057916,729,EAST 215 STREET,10467,212,Bronx,4663,83,-73.86319732666016,40.88042068481445
2058037,755,EAST 218 STREET,10467,212,Bronx,4666,19,-73.86102294921875,40.88241958618164
2058054,711,EAST 218 STREET,10467,212,Bronx,4666,37,-73.86245727539062,40.88288116455078
2058149,738,EAST  221 STREET,10467,212,Bronx,4668,77,-73.8604965209961,40.88425064086914
2058249,826,EAST 214 STREET,10467,212,Bronx,4672,52,-73.86073303222656,40.878719329833984
2058258,854,EAST  214 STREET,10467,212,Bronx,4672,67,-73.85965728759766,40.878379821777344
2058261,3603,BRONXWOOD AVENUE,10469,212,Bronx,4672,107,-73.85946655273438,40.87797927856445
2058364,844,EAST 216 STREET,10467,212,Bronx,4674,75,-73.85954284667969,40.879798889160156
2058439,820,EAST  218 STREET,10467,212,Bronx,4676,54,-73.85962677001953,40.88148880004883
2058557,870,EAST 220 STREET,10467,212,Bronx,4678,76,-73.85707092285156,40.882301330566406
2058575,829,EAST 220 STREET,10467,212,Bronx,4679,24,-73.85838317871094,40.88323974609375
2058602,864,EAST 221 STREET,10467,212,Bronx,4679,73,-73.85691833496094,40.88311004638672
2058637,836,EAST 222 STREET,10467,212,Bronx,4680,56,-73.85751342773438,40.884090423583984
2058820,941,EAST  214 STREET,10469,212,Bronx,4685,10,-73.85714721679688,40.878028869628906
2058922,914,EAST 217 STREET,10469,212,Bronx,4687,38,-73.85740661621094,40.87995910644531
2059344,3620,PAULDING AVENUE,10469,212,Bronx,4696,35,-73.85623931884766,40.87736129760742
2059520,1005,EAST 217 STREET,10469,212,Bronx,4700,28,-73.85498809814453,40.8796501159668
2059949,1303,NEEDHAM AVENUE,10469,212,Bronx,4711,56,-73.85263061523438,40.878108978271484
2059954,1312,NEEDHAM AVENUE,10469,212,Bronx,4711,75,-73.85201263427734,40.8779182434082
2059991,1443,OAKLEY STREET,10469,212,Bronx,4714,17,-73.85073852539062,40.879878997802734
2060182,1417,NEEDHAM AVENUE,10469,212,Bronx,4718,59,-73.85089111328125,40.878971099853516
2060678,3355,SEYMOUR AVENUE,10469,212,Bronx,4736,10,-73.84905242919922,40.875640869140625
2060719,3326,FISH AVENUE,10469,212,Bronx,4736,51,-73.84892272949219,40.87464904785156
2060747,3349,FENTON AVENUE,10469,212,Bronx,4737,17,-73.84790802001953,40.87540054321289
2061697,1352,BURKE AVENUE,10469,212,Bronx,4759,62,-73.84739685058594,40.871910095214844
2062589,2962,WICKHAM AVENUE,10469,212,Bronx,4790,2,-73.83789825439453,40.87076187133789
2062853,3972,BRONX BOULEVARD,10466,212,Bronx,4820,40,-73.86398315429688,40.88888168334961
2062933,3939,WHITE PLAINS ROAD,10466,212,Bronx,4825,5,-73.86131286621094,40.88690948486328
2062947,649,EAST 223 STREET,10466,212,Bronx,4825,34,-73.86295318603516,40.88718032836914
2063036,662,EAST 226 STREET,10466,212,Bronx,4827,74,-73.86150360107422,40.88872146606445
2063090,4036,LOWERRE PLACE,10466,212,Bronx,4829,50,-73.86026000976562,40.88978958129883
2063112,645,EAST 227 STREET,10466,212,Bronx,4830,20,-73.86163330078125,40.890079498291016
2063151,645,EAST 228 STREET,10466,212,Bronx,4831,55,-73.86107635498047,40.89073944091797
2063253,694,EAST 231 STREET,10466,212,Bronx,4833,88,-73.85871124267578,40.891990661621094
2063314,721,EAST 222 STREET,10467,212,Bronx,4836,36,-73.86070251464844,40.88566970825195
2063365,723,EAST 223 STREET,10466,212,Bronx,4837,34,-73.86023712158203,40.88631820678711
2063398,753,EAST  224 STREET,10466,212,Bronx,4838,22,-73.85884857177734,40.88671112060547
2063453,4009,BARNES AVENUE,10466,212,Bronx,4840,7,-73.8572769165039,40.88800048828125
2063462,753,EAST 226 STREET,10466,212,Bronx,4840,21,-73.8581314086914,40.88814163208008
2063465,737,EAST 226 STREET,10466,212,Bronx,4840,29,-73.85865020751953,40.888301849365234
2063810,3942,BARNES AVENUE,10466,212,Bronx,4848,40,-73.85785675048828,40.885841369628906
2064118,867,EAST  230 STREET,10466,212,Bronx,4855,14,-73.85311126708984,40.88985824584961
2064172,869,EAST 231 STREET,10466,212,Bronx,4856,14,-73.85270690917969,40.890560150146484
2064212,860,EAST 232 STREET,10466,212,Bronx,4856,84,-73.85286712646484,40.890960693359375
2064245,806,EAST 233 STREET,10466,212,Bronx,4857,84,-73.85430908203125,40.892120361328125
2092396,2407,VALENTINE AVENUE,10458,205,Bronx,3152,18,-73.89723205566406,40.859798431396484
2093474,2753,TENBROECK AVENUE,10469,211,Bronx,4523,37,-73.8531265258789,40.86698913574219
2093766,955,EAST  233 STREET,10466,212,Bronx,4975,6,-73.84977722167969,40.89126968383789
2093770,662,EAST  236 STREET,10466,212,Bronx,4996,72,-73.85758972167969,40.895790100097656
2096530,789,ST ANNS AVENUE,10456,201,Bronx,2360,7501,-73.91094207763672,40.82038116455078
2102263,1439,VYSE AVENUE,10459,203,Bronx,2987,137,-73.8895263671875,40.83134078979492
2102267,1447,VYSE AVENUE,10459,203,Bronx,2987,132,-73.88937377929688,40.83158874511719
2103148,2936,GRACE AVENUE,10469,212,Bronx,4797,64,-73.83524322509766,40.871219635009766
2112732,412,EAST  187 STREET,10458,206,Bronx,3031,145,-73.8935317993164,40.85834884643555
2113110,1103,FRANKLIN AVENUE,10456,203,Bronx,2608,22,-73.9066162109375,40.82783889770508
2113173,2541A,GRAND AVENUE,10468,207,Bronx,3214,141,-73.90115356445312,40.86602020263672
2114049,721,EAST  216 STREET,10467,212,Bronx,4664,38,-73.86289978027344,40.8813591003418
2114195,875,CAULDWELL AVENUE,10456,203,Bronx,2627,55,-73.90765380859375,40.82215118408203
2114200,1176,FOREST AVENUE,10456,203,Bronx,2662,8,-73.90141296386719,40.82892990112305
2114245,1372,PROSPECT AVENUE,10459,203,Bronx,2971,6,-73.89662170410156,40.83076095581055
2114362,3043B,WILSON AVENUE,10469,211,Bronx,4588,135,-73.8492431640625,40.87086868286133
2115862,724,UNION AVENUE,10455,201,Bronx,2675,43,-73.90347290039062,40.817100524902344
2115905,862,EAST  175 STREET,10460,206,Bronx,2957,31,-73.88890075683594,40.83992004394531
2115992,1960,DALY AVENUE,10460,206,Bronx,3126,13,-73.88349151611328,40.84206008911133
2116150,2542,WHITE PLAINS ROAD,10467,211,Bronx,4433,123,-73.86702728271484,40.864479064941406
3030846,947,ST MARK'S AVENUE,11213,308,Brooklyn,1223,66,-73.94007110595703,40.674930572509766
3038604,2276,ATLANTIC AVENUE,11233,316,Brooklyn,1435,16,-73.91002655029297,40.67599105834961
3066403,40A,JEWEL STREET,11222,301,Brooklyn,2653,57,-73.94624328613281,40.72679138183594
3094284,1005,GLENMORE AVENUE,11208,305,Brooklyn,4194,1,-73.87291717529297,40.676788330078125
3123739,1257,  36 STREET,11218,312,Brooklyn,5308,37,-73.98490905761719,40.6428108215332
3126705,305,DITMAS AVENUE,11218,312,Brooklyn,5387,50,-73.97572326660156,40.63602066040039
3217542,1495,EAST   46 STREET,11234,318,Brooklyn,7826,20,-73.93102264404297,40.62432098388672
3321435,1035,MANHATTAN AVENUE,11222,301,Brooklyn,2512,45,-73.95523834228516,40.734169006347656
3327450,5709,  13 AVENUE,11219,312,Brooklyn,5698,6,-73.9968032836914,40.63011932373047
3327812,1476,CONEY ISLAND AVENUE,11230,312,Brooklyn,6536,13,-73.9649429321289,40.62163162231445
3336214,800,ROGERS AVENUE,11226,317,Brooklyn,5090,49,-73.95282745361328,40.65122985839844
3342269,120,GROVE STREET,11221,304,Brooklyn,3323,17,-73.92017364501953,40.693450927734375
3344586,1499,EAST   46 STREET,11234,318,Brooklyn,7826,20,-73.93102264404297,40.62432098388672
3346691,614A,KOSCIUSKO STREET,11221,303,Brooklyn,1608,25,-73.92893981933594,40.692970275878906
3348366,40,CHRISTOPHER AVENUE,11212,316,Brooklyn,3692,20,-73.9068832397461,40.67266845703125
3348536,585,GRAND AVENUE,11238,308,Brooklyn,1148,5,-73.9617691040039,40.677589416503906
3348539,593,GRAND AVENUE,11238,308,Brooklyn,1148,5,-73.9617691040039,40.677589416503906
3348807,1064,VERMONT STREET,11207,305,Brooklyn,4414,7501,-73.88561248779297,40.65399169921875
3350169,325,SHEPHERD AVENUE,11208,305,Brooklyn,3973,7,-73.88126373291016,40.67715072631836
3378488,1975,PACIFIC STREET,11233,308,Brooklyn,1339,172,-73.9230728149414,40.67641830444336
3388271,127,BLAKE AVENUE,11212,316,Brooklyn,3538,101,-73.91497039794922,40.66497039794922
3388274,580,NEW JERSEY AVENUE,11207,305,Brooklyn,3806,69,-73.8933334350586,40.66510009765625
3388416,870,KNICKERBOCKER AVENUE,11207,304,Brooklyn,3430,33,-73.90535736083984,40.69124984741211
3389001,554,  60 STREET,11220,307,Brooklyn,5783,30,-74.01497650146484,40.638458251953125
3389513,2767,ATLANTIC AVENUE,11207,305,Brooklyn,3946,45,-73.8920669555664,40.67654037475586
3389656,108,EAST   28 STREET,11226,317,Brooklyn,5138,112,-73.95121765136719,40.646568298339844
3389884,139,ALBANY AVENUE,11213,308,Brooklyn,1346,6,-73.93850708007812,40.67593002319336
3389996,173,HULL STREET,11233,316,Brooklyn,1534,58,-73.91000366210938,40.67987060546875
3390058,197,CHAUNCEY STREET,11233,303,Brooklyn,1687,70,-73.92711639404297,40.68088150024414
3390060,108,MARION STREET,11233,303,Brooklyn,1695,20,-73.92652130126953,40.67975997924805
3390372,125,ELDERT STREET,11207,304,Brooklyn,3410,62,-73.91159057617188,40.688560485839844
3390386,1072,DECATUR STREET,11207,304,Brooklyn,3433,22,-73.90973663330078,40.686180114746094
3390390,73,COOPER STREET,11207,304,Brooklyn,3433,58,-73.90972900390625,40.68571090698242
3390701,2405,ALBEMARLE ROAD,11226,317,Brooklyn,5110,76,-73.9547119140625,40.64817810058594
3392773,427,HERKIMER STREET,11213,303,Brooklyn,1864,46,-73.93921661376953,40.679290771484375
3393226,1355,DECATUR STREET,11237,304,Brooklyn,3431,28,-73.90447998046875,40.6922492980957
3393268,323,HOPKINSON AVENUE,11233,316,Brooklyn,1454,1,-73.9136962890625,40.6733512878418
3393313,2037,STRAUSS STREET,11212,316,Brooklyn,3555,16,-73.91487121582031,40.66419982910156
4048548,40-15, 102 STREET,11368,404,Queens,1974,43,-73.86369323730469,40.749351501464844
4082462,17-14,LINDEN STREET,11385,405,Queens,3452,15,-73.90962982177734,40.702880859375
4083113,878,WOODWARD AVENUE,11385,405,Queens,3473,47,-73.90178680419922,40.70232009887695
4083353,813,WOODWARD AVENUE,11385,405,Queens,3482,56,-73.90274810791016,40.70344161987305
4083473,6-79,GRANDVIEW AVENUE,11385,405,Queens,3488,1,-73.9035873413086,40.70745086669922
4232788,99-04 A, 212 STREET,11429,413,Queens,10880,46,-73.74703216552734,40.714149475097656
4314836,160-10,  75 ROAD,11366,408,Queens,6835,5,-73.8079605102539,40.72589111328125
4314837,160-28,  75 ROAD,11366,408,Queens,6835,12,-73.80757141113281,40.7259407043457
4462811,37-37,  69 STREET,11377,402,Queens,1282,39,-73.89630889892578,40.747379302978516
4535517,32-16, 112 PLACE,11369,403,Queens,1706,18,-73.85730743408203,40.7587890625
4535526,103-05,  35 AVENUE,11368,403,Queens,1744,43,-73.86490631103516,40.75490188598633
4618574,95-52, 112 STREET,11419,409,Queens,9413,29,-73.83265686035156,40.6893196105957
